#dP2024 12 25  0  0  0.00000000      96 __u+U IGS20 EXT  IAC
## 2346 259200.00000000   900.00000000 60669 0.0000000000000
+   51   G02G03G04G05G06G07G08G10G11G12G13G14G15G16G17G18G19
+        G20G21G22G23G24G25G26G27G28G29G30G31G32R01R02R03R04
+        R05R07R08R09R11R12R14R15R16R17R18R19R20R21R22R24R26
+          0  0  0  0  0  0  0  0  0  0  0  0  0  0  0  0  0
+          0  0  0  0  0  0  0  0  0  0  0  0  0  0  0  0  0
++         8  7  8  7  7  7  8  8  7  7  7  8  7  8  8  8  7
++         7  8  7  7  7  7  7 11  8  8  8  8  8  7  8  7  8
++         8  9  9  8  8  7  8  8  9  8  9  8  9  9  8  7  9
++         0  0  0  0  0  0  0  0  0  0  0  0  0  0  0  0  0
++         0  0  0  0  0  0  0  0  0  0  0  0  0  0  0  0  0
%c M  cc GPS ccc cccc cccc cccc cccc ccccc ccccc ccccc ccccc
%c cc cc ccc ccc cccc cccc cccc cccc ccccc ccccc ccccc ccccc
%f  0.0000000  0.000000000  0.00000000000  0.000000000000000
%f  0.0000000  0.000000000  0.00000000000  0.000000000000000
%i    0    0    0    0      0      0      0      0         0
%i    0    0    0    0      0      0      0      0         0
/* IAC                                ULTRA-RAPID PREDICTION
/* S/V CLOCKS ARE ALIGNED TO GNSS TIME                      
/* G:C1WC2W R:C1PC2P E:C1XC5X C:C2IC6I J:C1CC2S             
/* PCV:IGS20_2317 OL/AL:FES2004  NONE     YN ORB:CoN CLK:CoN
*  2024 12 25  9  0  0.00000000
PG02 -14344.227393  21821.254610   3996.872808   -283.864583
PG03 -13081.796222  12390.402968 -19636.853194    632.326811
PG04  -4286.090668  19224.937234 -17727.482056    501.438087
PG05  24661.221556  -5679.109974   7998.794192   -197.044352
PG06  12347.842368   7719.425438 -22140.829297    -70.055932
PG07  -3321.998816  22924.967592  13114.550744    -14.588157
PG08 -12430.295897   9149.903927  21465.241203    446.434369
PG10 -19831.073955 -10525.518375  14685.713070   -248.644636
PG11  18689.702920  -4898.469483 -18156.728866   -752.705240
PG12  16860.521102 -10690.731391 -17785.081095   -560.475886
PG13  15597.173914    559.151483  21291.619407    691.201642
PG14  16361.089288  12983.173202  16588.819198    567.052120
PG15  10748.138546 -11303.714158  20968.648230    243.713111
PG16 -26532.565773   -955.098613   3336.323568    -94.562212
PG17  13016.900576  22678.232257  -3561.232218    504.242856
PG18   2285.489099 -21845.618465  14800.833548   -659.741547
PG19  16544.994676  16346.977003 -13353.888308    578.067133
PG20  26113.127082   -688.625121  -4298.752287    367.610100
PG21 -16692.307623  17426.904648  10090.879876     98.208727
PG22  21797.808035  10521.795465  10953.353879    -88.504842
PG23  -5794.321850 -14468.387191  21583.265104    390.522553
PG24  14530.684170 -21337.627081   4795.209199   -470.493223
PG25   2456.163265 -15536.335352 -21744.791881    497.682557
PG26 -25137.962032  -4762.423527  -8026.626840    -21.928673
PG27 -17401.751185  -3225.815857  19630.579132    -33.848913
PG28 -11797.556515  -9831.687071 -21685.843336   -517.757155
PG29  -2061.778963 -23960.357683 -11182.631914   -552.989800
PG30   6856.600738  16498.027112  19725.671625   -253.850498
PG31 -17441.264578    195.771455 -20373.458223   -219.292525
PG32 -16322.252462 -19775.196528  -7101.307342   -553.341291
PR01  20021.901196  15697.344880   1893.965902    108.953084
PR02  17844.593486   5384.907309  17420.528520    -38.914520
PR03   6004.816730  -9092.845957  23112.909602    113.852807
PR04  -8568.475573 -17877.888113  16093.358378    269.906148
PR05 -18623.157199 -17448.149867    486.739180    142.733325
PR07  -5775.001473   9239.170399 -23020.198745     97.596799
PR08   8926.378427  17883.191910 -15761.603494     -6.170199
PR09 -24125.893728   5979.905686  -5522.672330    228.230808
PR11  -4946.710540  12554.174344  21648.182514      3.263958
PR12  15203.655029   4974.345337  19880.723701     48.825940
PR14  19106.539903 -12473.284414 -11417.611530     27.487208
PR15   3090.124790 -12275.737200 -22134.617274     72.849403
PR16 -15025.194035  -4894.053199 -20010.051194     31.925553
PR17   9506.639661 -21163.944478 -10540.510984    151.554872
PR18   2955.097780 -24699.135819   5784.601049    178.566062
PR19  -3854.594542 -17460.870157  18196.690195   -303.154359
PR20 -11474.629112   4089.725271  22420.125403   -123.734726
PR21 -10013.308641  20395.204907  11627.962751   -162.481821
PR22  -2753.157794  24391.605315  -6886.353797    -52.722770
PR24  11754.316122  -5118.293023 -22025.581201    -85.455043
PR26   7495.717821  17316.492566 -17152.358280   -132.440890
*  2024 12 25  9 15  0.00000000
PG02 -14330.618940  21196.282208   6796.920958   -283.856536
PG03 -15206.561749  12271.302684 -18098.881175    632.334334
PG04  -5391.825428  17408.346532 -19249.758465    501.443542
PG05  25445.828336  -5508.420113   5254.611357   -197.045326
PG06  11020.225477   9876.708297 -21973.622336    -70.081185
PG07  -4202.147264  23924.957472  10725.337790    -14.587243
PG08 -13762.880318   7047.978179  21485.814759    446.442094
PG10 -18087.568493 -10612.050492  16733.026143   -248.658791
PG11  17616.222783  -3010.848552 -19587.018317   -752.705128
PG12  18727.112266 -10395.861002 -15965.821408   -560.477914
PG13  16437.915718   2841.566363  20491.369626    691.202773
PG14  14376.499372  13095.845927  18239.124768    567.058845
PG15  12344.518059  -9348.416890  21063.064144    243.717209
PG16 -26767.595430  -1200.029261    518.522377    -94.553677
PG17  12914.335875  23052.460905   -696.512063    504.228050
PG18   3256.033212 -23087.149718  12538.769942   -659.740878
PG19  16937.413562  17658.608065 -10993.208150    578.071349
PG20  25507.996174   -307.852131  -7054.137115    367.609823
PG21 -16410.511076  16143.928645  12580.112626     98.210848
PG22  20436.110812  10619.259072  13338.757844    -88.506926
PG23  -3317.328588 -14542.447510  22032.223515    390.529420
PG24  14535.890613 -20491.218054   7497.391162   -470.490168
PG25   4851.871458 -15522.536854 -21317.569730    497.682113
PG26 -24131.525553  -5123.044051 -10522.474976    -21.941724
PG27 -18425.502068  -5193.735334  18287.043709    -33.848530
PG28 -10591.980928 -11967.373392 -21229.378387   -517.766495
PG29  -1275.335749 -22770.913214 -13554.681881   -552.986886
PG30   5630.970234  18297.886161  18452.006976   -253.843111
PG31 -16279.861598  -1818.082861 -21214.588476   -219.291863
PG32 -16469.217220 -20474.183700  -4351.956209   -553.335570
PR01  20144.460168  15598.724230  -1319.984184    108.954237
PR02  19446.983207   6594.300002  15127.139161    -38.914268
PR03   8181.712258  -7269.240805  23084.784221    113.853375
PR04  -7044.440116 -16406.523681  18256.431885    269.907408
PR05 -18550.461508 -17138.717878   3701.459044    142.733929
PR07  -7961.254181   7405.589927 -23035.498981     97.597447
PR08   7393.675038  16450.770612 -17957.443988     -6.170268
PR09 -23288.083729   5725.595207  -8556.222666    228.232759
PR11  -7348.910356  13524.335008  20340.511011      3.262491
PR12  12805.652137   5803.926237  21296.961288     48.826349
PR14  20218.869132 -13011.537952  -8541.825283     27.487331
PR15   5575.799017 -13244.227599 -21064.942227     72.848968
PR16 -12607.607532  -5731.244975 -21410.706481     31.925880
PR17   9089.790803 -19738.794330 -13309.352319    151.557706
PR18   2855.872237 -25242.759301   2604.349081    178.567793
PR19  -3528.482807 -19552.850827  16001.885570   -303.155624
PR20 -10804.031925   1362.193139  23079.019596   -123.735248
PR21  -9551.317782  18854.414797  14307.388609   -162.484635
PR22  -2756.637575  25067.640175  -3762.218407    -52.724304
PR24  11236.242757  -2398.097057 -22748.744345    -85.456361
PR26   5835.259278  15803.330452 -19139.467109   -132.440560
EOF
